ONEWEB-0020             
1 45133U 20008C   25112.46909919  .00001205  00000+0  34160-2 0  9997
2 45133  87.8797 120.1395 0002237  97.7838 262.3544 13.10378980253243
ONEWEB-0021             
1 45134U 20008D   25112.40768464  .00000268  00000+0  73245-3 0  9996
2 45134  87.8792 120.1823 0002001  86.9503 273.1853 13.10370146253545
ONEWEB-0023             
1 45136U 20008F   25112.95296651 -.00000276  00000+0 -82572-3 0  9996
2 45136  87.8787 120.0594 0002247  95.2774 264.8610 13.10369271253040
ONEWEB-0024             
1 45137U 20008G   25112.46745239  .00000695  00000+0  19540-2 0  9991
2 45137  87.8783 120.1124 0001946  91.8500 268.2851 13.10373298253141
ONEWEB-0025             
1 45138U 20008H   25112.40851304  .00000242  00000+0  65764-3 0  9995
2 45138  87.8778 120.1246 0002400  81.7607 278.3793 13.10369347253465
ONEWEB-0026             
1 45139U 20008J   25112.45817225 -.00000406  00000+0 -11825-2 0  9997
2 45139  87.8796 104.9301 0001896  89.8253 270.3093 13.11415752256845
ONEWEB-0028             
1 45140U 20008K   25112.94982980  .00001268  00000+0  35396-2 0  9998
2 45140  87.8790 104.8602 0002528  79.0577 281.0836 13.11436575253541
ONEWEB-0032             
1 45141U 20008L   25112.95877472 -.00000416  00000+0 -12273-2 0  9994
2 45141  87.8780 120.0659 0002125  86.5270 273.6100 13.10370754253264
